GSAT0206 (GALILEO 10)   
1 40890U 15045B   26093.37447767 -.00000013  00000+0  00000+0 0  9994
2 40890  54.9697 223.6683 0002814  47.1384 312.8358  1.70473950 65765
BEIDOU-3S IGSO-2S       
1 40938U 15053A   26094.90867057 -.00000141  00000+0  00000+0 0  9996
2 40938  49.3383 259.6493 0062372 189.8511 167.6444  1.00277370 38614
NAVSTAR 75 (USA 265)    
1 41019U 15062A   26093.49069273 -.00000091  00000+0  00000+0 0  9998
2 41019  56.9127  33.6891 0111291 231.5972 127.3862  2.00567162 76338
GSAT-15                 
1 41028U 15065A   26095.12753198  .00000000  00000+0  00000+0 0  9998
2 41028   0.0183 220.1274 0002795 191.7575 280.9440  1.00268756 38064
GSAT0209 (GALILEO 12)   
1 41174U 15079A   26092.95596920  .00000032  00000+0  00000+0 0  9996
2 41174  55.7797 103.3236 0005514 325.8217  34.1781  1.70474345 63491
GSAT0208 (GALILEO 11)   
1 41175U 15079B   26093.17621361  .00000031  00000+0  00000+0 0  9999
2 41175  55.7782 103.3145 0004973 327.5574  32.4460  1.70474211 63912
IRNSS-1E                
1 41241U 16003A   26094.34078049 -.00000292  00000+0  00000+0 0  9990
2 41241  33.0772  60.8121 0016904 186.2611 180.0759  1.00272036 37347
NAVSTAR 76 (USA 266)    
1 41328U 16007A   26095.07316084  .00000003  00000+0  00000+0 0  9994
2 41328  55.4776  92.3565 0095993 246.7419 112.2530  2.00555330 74370
COSMOS 2514 [GLONASS-M] 
1 41330U 16008A   26091.32659271 -.00000037  00000+0  00000+0 0  9998
2 41330  65.0661 315.6458 0009038 202.4041 157.6117  2.13102702 78980
IRNSS-1F                
1 41384U 16015A   26095.21711404  .00000161  00000+0  00000+0 0  9991
2 41384   5.1645  98.4763 0017903 187.9777  17.6934  1.00275321 36938
BEIDOU-2 IGSO-6         
1 41434U 16021A   26092.81344461 -.00000170  00000+0  00000+0 0  9993
2 41434  60.1276  38.7875 0058842 233.3821 307.4549  1.00273243 36729
IRNSS-1G                
1 41469U 16027A   26095.27151667 -.00000331  00000+0  00000+0 0  9993
2 41469   5.0151  99.2044 0005873 331.5039 350.1387  1.00270353 36448
GSAT0211 (GALILEO 14)   
1 41549U 16030A   26094.47340742 -.00000007  00000+0  00000+0 0  9991
2 41549  55.1194 223.7205 0002867  14.1895 345.7766  1.70474141 61411
GSAT0210 (GALILEO 13)   
1 41550U 16030B   26094.14409291 -.00000008  00000+0  00000+0 0  9993
2 41550  55.1189 223.7276 0002051 215.3594 144.5829  1.70474077 61403
BEIDOU-2 G7             
1 41586U 16037A   26095.26770332 -.00000352  00000+0  00000+0 0  9992
2 41586   1.5403  68.5764 0007507 349.6401 342.1932  1.00277528  6159
EUTELSAT 117 WEST B     
1 41589U 16038B   26095.22263942 -.00000010  00000+0  00000+0 0  9997
2 41589   0.0144  59.8312 0000400 210.4490 246.4043  1.00270000 35933
GSAT0207 (GALILEO 15)   
1 41859U 16069A   26093.24922366  .00000030  00000+0  00000+0 0  9994
2 41859  55.4504 103.1579 0005781 313.2719  46.7132  1.70474272 58128
